GLOBALSTAR M068         
1 32266U 07048D   25283.23704383 -.00000099  00000+0  29549-4 0  9999
2 32266  51.9892 311.5459 0001194  43.9429  33.7455 12.62830232832097
GLOBALSTAR M079         
1 37188U 10054A   25283.09423969 -.00000083  00000+0  11576-3 0  9993
2 37188  52.0020 149.9918 0000832  97.6671  60.4341 12.62267669690963
GLOBALSTAR M074         
1 37189U 10054B   25283.03934902 -.00000069  00000+0  19452-3 0  9997
2 37189  51.9997 149.4639 0000740  76.7392  71.2543 12.62272343691562
GLOBALSTAR M076         
1 37190U 10054C   25283.06948744 -.00000076  00000+0  15432-3 0  9993
2 37190  52.0012 149.5544 0000585  92.3437  72.0155 12.62266127691281
GLOBALSTAR M077         
1 37191U 10054D   25261.11398905 -.00000105  00000+0 -68518-5 0  9993
2 37191  52.0064 173.2575 0000611  67.5371  70.5425 12.62323380688888
GLOBALSTAR M075         
1 37192U 10054E   25283.15767457 -.00000064  00000+0  22292-3 0  9994
2 37192  51.9937 191.4773 0000705  68.3382  77.9228 12.62268552690360
GLOBALSTAR M073         
1 37193U 10054F   25283.24244728 -.00000109  00000+0 -28121-4 0  9995
2 37193  52.0038 105.1258 0000831 103.9006  66.9783 12.62263486692361
GLOBALSTAR M083         
1 37739U 11033A   25282.77515531 -.00000099  00000+0  25298-4 0  9998
2 37739  51.9866  55.1186 0000880 110.2459  37.5020 12.62276726661326
GLOBALSTAR M088         
1 37740U 11033B   25283.03688094 -.00000083  00000+0  11328-3 0  9996
2 37740  52.0227 320.1486 0000422  82.9431 293.4510 12.62268557656904
GLOBALSTAR M091         
1 37741U 11033C   25283.28673975 -.00000096  00000+0  44534-4 0  9996
2 37741  51.9992 282.7210 0000547  83.6229 289.5733 12.62260377657727
GLOBALSTAR M085         
1 37742U 11033D   25283.22186950 -.00000085  00000+0  10660-3 0  9993
2 37742  52.0113 233.9911 0000727  79.7739  58.2870 12.62265386658227
GLOBALSTAR M081         
1 37743U 11033E   25283.33344485 -.00000094  00000+0  56447-4 0  9999
2 37743  51.9947 236.3725 0000503  82.4842  82.3952 12.62268998658387
GLOBALSTAR M089         
1 37744U 11033F   25283.20751863 -.00000066  00000+0  20887-3 0  9995
2 37744  51.9923 190.9622 0000552  51.8080  81.2952 12.62267710659213
GLOBALSTAR M084         
1 38040U 11080A   25282.82961627 -.00000120  00000+0 -88505-4 0  9999
2 38040  52.0013  59.4580 0000448 101.6326  53.1269 12.62269275637143
GLOBALSTAR M080         
1 38041U 11080B   25283.32444435 -.00000115  00000+0 -60581-4 0  9997
2 38041  52.0064  59.5838 0001167  88.2438 285.4285 12.62269593637332
GLOBALSTAR M082         
1 38042U 11080C   25283.26153233 -.00000095  00000+0  50528-4 0  9990
2 38042  52.0103  15.2501 0000891  99.2731 279.1484 12.62263379638039
GLOBALSTAR M092         
1 38043U 11080D   25283.26896243 -.00000100  00000+0  19832-4 0  9996
2 38043  52.0063 105.6117 0000855  88.2483  82.9293 12.62266891636481
GLOBALSTAR M090         
1 38044U 11080E   25283.20931604 -.00000089  00000+0  81210-4 0  9997
2 38044  52.0151   9.2850 0000673 117.1449 263.0465 12.62262607638144
GLOBALSTAR M086         
1 38045U 11080F   25283.23586569 -.00000094  00000+0  51828-4 0  9995
2 38045  51.9925   9.5406 0000978 184.9523 201.7558 12.62277846638092
GLOBALSTAR M097         
1 39072U 13005A   25283.17826900 -.00000098  00000+0  33976-4 0  9992
2 39072  52.0042 284.3874 0000415 101.5443 258.5470 12.62266355585333
GLOBALSTAR M093         
1 39073U 13005B   25283.23143811 -.00000093  00000+0  62869-4 0  9991
2 39073  52.0096 277.4774 0000566 114.0480 246.0446 12.62265081585297
GLOBALSTAR M094         
1 39074U 13005C   25283.07275413 -.00000076  00000+0  15448-3 0  9999
2 39074  51.9947 192.3236 0000750  87.3334 272.7618 12.62264108586886
GLOBALSTAR M096         
1 39075U 13005D   25283.16515216 -.00000092  00000+0  65643-4 0  9999
2 39075  52.0062 240.6467 0000637  85.9073 274.1866 12.62267413585813
GLOBALSTAR M078         
1 39076U 13005E   25283.13918868  .00000011  00000+0  63800-3 0  9999
2 39076  51.9888 325.0844 0001280  81.6431 278.4581 12.62261262584435
GLOBALSTAR M095         
1 39077U 13005F   25283.32355528 -.00000078  00000+0  14461-3 0  9992
2 39077  52.0092 321.7710 0000870 107.2057 252.8906 12.62260621584315
GLOBALSTAR M087         
1 52888U 22064A   25282.94098486 -.00000111  00000+0 -40468-4 0  9992
2 52888  51.9974 104.3146 0001024 100.1216 259.9766 12.62289286159538
